APRIZESAT 2             
1 28366U 04025A   26158.47393346  .00000193  00000+0  73547-4 0  9999
2 28366  98.1008 325.0047 0104286 279.5225  79.4190 14.38032327150242
SAUDICOMSAT 1           
1 28369U 04025D   26158.52925425  .00000497  00000+0  12475-3 0  9996
2 28369  98.5772 168.4001 0033176  54.4822 305.9461 14.55466396162728
SAUDICOMSAT 2           
1 28370U 04025E   26158.74022344  .00000340  00000+0  99027-4 0  9996
2 28370  98.6642 170.7189 0054173 288.7256  70.8062 14.49976097158731
APRIZESAT 1             
1 28372U 04025G   26158.78351505  .00000232  00000+0  69066-4 0  9996
2 28372  98.6304 169.2531 0044519 182.2178 177.8826 14.51772476160542
NANOSAT-1               
1 28493U 04049B   26158.63728522  .00001265  00000+0  17398-3 0  9994
2 28493  98.2265 295.0656 0003359 341.8119  18.2971 14.80141663154035
SAUDICOMSAT 7           
1 31119U 07012C   26158.48969166  .00000606  00000+0  11763-3 0  9998
2 31119  98.3773 132.4231 0054693 225.9679 133.7012 14.66101402 21013
SAUDICOMSAT 6           
1 31121U 07012E   26158.64921642  .00000821  00000+0  16614-3 0  9995
2 31121  98.4093 125.9886 0071754 357.6121   2.4727 14.62546902 18797
SAUDICOMSAT 5           
1 31124U 07012H   26158.74926185  .00000703  00000+0  12938-3 0  9990
2 31124  98.3484 133.4373 0047932 153.8634 206.5005 14.68145873 22210
SAUDICOMSAT 3           
1 31125U 07012J   26158.18193285  .00000885  00000+0  15228-3 0  9992
2 31125  98.3138 133.4079 0040509  83.8456 276.7362 14.70688991 23354
SAUDICOMSAT 4           
1 31127U 07012L   26158.65778314  .00000660  00000+0  13115-3 0  9992
2 31127  98.3978 131.0340 0062121 288.6396  70.8067 14.64503040 19898
APRIZESAT 4             
1 35684U 09041D   26158.74915904  .00000779  00000+0  99447-4 0  9990
2 35684  98.1412 233.8815 0043077 354.0922   5.9777 14.83867367909960
APRIZESAT 3             
1 35686U 09041F   26158.66949807  .00001544  00000+0  13740-3 0  9994
2 35686  98.2056 311.4387 0062789  98.3314 262.5031 14.96214927914959
S-NET D                 
1 43186U 18014G   26158.69721507  .00006035  00000+0  31213-3 0  9991
2 43186  97.5366  63.5470 0009706  58.8150 301.4033 15.16583818457325
S-NET B                 
1 43187U 18014H   26158.70848243  .00005565  00000+0  28835-3 0  9994
2 43187  97.5373  63.5445 0010280  54.4023 305.8167 15.16554248457327
S-NET A                 
1 43188U 18014J   26158.69614310  .00006167  00000+0  31878-3 0  9999
2 43188  97.5380  63.7393 0010161  54.8789 305.3395 15.16591754457322
S-NET C                 
1 43189U 18014K   26158.71231015  .00005491  00000+0  28453-3 0  9994
2 43189  97.5397  63.8288 0011385  47.9234 312.2965 15.16546137455875
SALSAT                  
1 46495U 20068K   26158.72612110  .00008408  00000+0  29512-3 0  9997
2 46495  97.8853 161.2159 0008931 346.1637  13.9356 15.29663376313918
OOV-CUBE (TUBSAT-30)    
1 60240U 24128F   26158.60681561  .00003037  00000+0  23682-3 0  9990
2 60240  61.9951 258.9782 0045839 131.6084 228.8949 15.02733323104677
LPNTSAT-001 (IOD-1)     
1 68408U 26065A   26158.65366622  .00003351  00000+0  16520-3 0  9991
2 68408  97.4029  39.3647 0017595  42.4516 317.8076 15.18488299 10817
